NORAD_CAT_ID,OBJECT_NAME,OBJECT_TYPE,EPOCH,MEAN_MOTION,ECCENTRICITY,INCLINATION,RA_OF_ASC_NODE,ARG_OF_PERICENTER,MEAN_ANOMALY,BSTAR,MEAN_MOTION_DOT,MEAN_MOTION_DDOT,TLE_LINE0,TLE_LINE1,TLE_LINE2,SEMIMAJOR_AXIS,PERIOD,APOGEE,PERIGEE,DECAYED
53009.0,STARLINK-4277,PAYLOAD,2022-09-17 14:00:01,15.49855059,0.0001895,53.2167,24.2497,40.359,216.4168,0.00087827,0.0004966,0.0,0 STARLINK-4277,1 53009U 22076Z   22260.58334491  .00049660  00000-0  87827-3 0  9993,2 53009  53.2167  24.2497 0001895  40.3590 216.4168 15.49855059  1308,6795.2869999999975,92.912,418.439,415.864,0.0
53009.0,STARLINK-4277,PAYLOAD,2022-09-17 22:00:00,15.50082583,0.0001489,53.2165,22.6508,42.0549,275.6076,-0.022142,-0.01157353,0.0,0 STARLINK-4277,1 53009U 22076Z   22260.91667824 -.01157353  00000-0 -22142-1 0  9998,2 53009  53.2165  22.6508 0001489  42.0549 275.6076 15.50082583  1304,6794.621999999999,92.898,417.49800000000016,415.475,0.0
53009.0,STARLINK-4277,PAYLOAD,2022-09-18 14:00:01,15.48499293,0.0002186999999999,53.2175,19.4587,23.9999,54.0724,-0.021588,-0.01059438,0.0,0 STARLINK-4277,1 53009U 22076Z   22261.58335648 -.01059438  00000-0 -21588-1 0  9996,2 53009  53.2175  19.4587 0002187  23.9999  54.0724 15.48499293 11979,6799.252,92.993,422.604,419.63,0.0
53009.0,STARLINK-4277,PAYLOAD,2022-09-18 22:00:00,15.47739128,0.0001636999999999,53.2171,17.8663,42.3158,94.4779,-0.022141,-0.01057889,0.0,0 STARLINK-4277,1 53009U 22076Z   22261.91667824 -.01057889  00000-0 -22141-1 0  9991,2 53009  53.2171  17.8663 0001637  42.3158  94.4779 15.47739128  1300,6801.479,93.039,424.457,422.23,0.0
53009.0,STARLINK-4277,PAYLOAD,2022-09-19 14:00:01,15.46219015,0.0002064,53.2173,14.6878,29.8555,221.771,-0.023302,-0.01056158,0.0,0 STARLINK-4277,1 53009U 22076Z   22262.58334491 -.01056158  00000-0 -23302-1 0  9994,2 53009  53.2173  14.6878 0002064  29.8555 221.7710 15.46219015 12131,6805.936,93.13,429.205,426.396,0.0
53009.0,STARLINK-4277,PAYLOAD,2022-09-19 22:00:00,15.45462221,0.000135,53.2171,13.1007,50.4103,257.2629,-0.024031,-0.01060401,0.0,0 STARLINK-4277,1 53009U 22076Z   22262.91667824 -.01060401  00000-0 -24031-1 0  9996,2 53009  53.2171  13.1007 0001350  50.4103 257.2629 15.45462221  1301,6808.156999999997,93.176,430.941,429.103,0.0
53009.0,STARLINK-4277,PAYLOAD,2022-09-20 06:00:00,15.44699118,0.0001558,53.2172,11.5141,36.6373,326.1728,-0.02452,-0.01054576,0.0,0 STARLINK-4277,1 53009U 22076Z   22263.25001157 -.01054576  00000-0 -24520-1 0  9994,2 53009  53.2172  11.5141 0001558  36.6373 326.1728 15.44699118 12234,6810.399,93.222,433.325,431.203,0.0
53009.0,STARLINK-4277,PAYLOAD,2022-09-20 14:00:01,15.43942871,0.0001996,53.2173,9.933,27.8167,29.2129,-0.025286,-0.01059368,0.0,0 STARLINK-4277,1 53009U 22076Z   22263.58334491 -.01059368  00000-0 -25286-1 0  9994,2 53009  53.2173   9.9330 0001996  27.8167  29.2129 15.43942871  1303,6812.623000000001,93.268,435.848,433.128,0.0
53009.0,STARLINK-4277,PAYLOAD,2022-09-20 22:00:01,15.43181401,0.0001725,53.2172,8.3512,36.9662,73.4384,-0.025858,-0.01055871,0.0,0 STARLINK-4277,1 53009U 22076Z   22263.91668981 -.01055871  00000-0 -25858-1 0  9995,2 53009  53.2172   8.3512 0001725  36.9662  73.4384 15.43181401  1306,6814.864000000001,93.314,437.904,435.55300000000005,0.0
53009.0,STARLINK-4277,PAYLOAD,2022-09-21 22:00:00,15.40904509,0.0001641,53.2173,3.618,41.3457,223.4462,-0.0279959999999999,-0.01073365,0.0,0 STARLINK-4277,1 53009U 22076Z   22264.91667824 -.01073365  00000-0 -27996-1 0  9994,2 53009  53.2173   3.6180 0001641  41.3457 223.4462 15.40904509  1308,6821.576,93.452,444.56,442.321,0.0
53009.0,STARLINK-4277,PAYLOAD,2022-09-22 14:00:01,15.39413465,0.0001493,53.2172,0.4743,44.2066,318.9748,-0.030557,-0.01111424,0.0,0 STARLINK-4277,1 53009U 22076Z   22265.58334491 -.01111424  00000-0 -30557-1 0  9995,2 53009  53.2172   0.4743 0001493  44.2066 318.9748 15.39413465  1301,6825.98,93.542,448.864,446.826,0.0
53009.0,STARLINK-4277,PAYLOAD,2022-09-22 22:00:00,15.38606832,0.00016,53.2169,358.903,35.7543,15.2842,-0.029387,-0.01046359,0.0,0 STARLINK-4277,1 53009U 22076Z   22265.91667824 -.01046359  00000-0 -29387-1 0  9994,2 53009  53.2169 358.9030 0001600  35.7543  15.2842 15.38606832  1305,6828.365,93.591,451.323,449.138,0.0
53009.0,STARLINK-4277,PAYLOAD,2022-09-23 14:00:01,15.37105401,0.0002023,53.2174,355.7668,34.3079,109.6507,-0.031606,-0.01069497,0.0,0 STARLINK-4277,1 53009U 22076Z   22266.58334491 -.01069497  00000-0 -31606-1 0  9994,2 53009  53.2174 355.7668 0002023  34.3079 109.6507 15.37105401  1303,6832.811,93.683,456.0580000000001,453.294,0.0
53009.0,STARLINK-4277,PAYLOAD,2022-09-23 22:00:00,15.36346254,0.0001605,53.2173,354.2005,49.5451,139.5096,-0.032422,-0.01070216,0.0,0 STARLINK-4277,1 53009U 22076Z   22266.91667824 -.01070216  00000-0 -32422-1 0  9998,2 53009  53.2173 354.2005 0001605  49.5451 139.5096 15.36346254  1305,6835.062,93.729,458.024,455.83,0.0
53009.0,STARLINK-4277,PAYLOAD,2022-09-24 14:00:01,15.34826322,0.0001718,53.2175,351.077,41.4779,235.093,-0.033974,-0.01068028,0.0,0 STARLINK-4277,1 53009U 22076Z   22267.58335648 -.01068028  00000-0 -33974-1 0  9999,2 53009  53.2175 351.0770 0001718  41.4779 235.0930 15.34826322  1306,6839.573,93.822,462.61300000000006,460.263,0.0
53009.0,STARLINK-4277,PAYLOAD,2022-09-24 22:00:00,15.34068541,0.0001486999999999,53.2173,349.5162,44.4917,274.373,-0.034937,-0.01071612,0.0,0 STARLINK-4277,1 53009U 22076Z   22267.91667824 -.01071612  00000-0 -34937-1 0  9993,2 53009  53.2173 349.5162 0001487  44.4917 274.3730 15.34068541  1306,6841.826,93.868,464.708,462.673,0.0
53009.0,STARLINK-4277,PAYLOAD,2022-09-25 14:00:01,15.32548923,0.0001662,53.2174,346.4035,38.7503,2.0906,-0.036604,-0.0107,0.0,0 STARLINK-4277,1 53009U 22076Z   22268.58334491 -.01070000  00000-0 -36604-1 0  9991,2 53009  53.2174 346.4035 0001662  38.7503   2.0906 15.32548923 13055,6846.348000000001,93.961,469.35,467.075,0.0
53009.0,STARLINK-4277,PAYLOAD,2022-09-25 22:00:01,15.31788119,0.0001745,53.2174,344.848,36.1703,44.3552,-0.037413,-0.01067917,0.0,0 STARLINK-4277,1 53009U 22076Z   22268.91668981 -.01067917  00000-0 -37413-1 0  9994,2 53009  53.2174 344.8480 0001745  36.1703  44.3552 15.31788119  1300,6848.614000000001,94.008,471.674,469.284,0.0
53009.0,STARLINK-4277,PAYLOAD,2022-09-26 10:00:00,15.30647202,0.0001724,53.2171,342.5212,35.2341,282.9451,-0.038642,-0.01064527,0.0,0 STARLINK-4277,1 53009U 22076Z   22269.41667824 -.01064527  00000-0 -38642-1 0  9994,2 53009  53.2171 342.5212 0001724  35.2341 282.9451 15.30647202 13183,6852.017,94.078,475.06300000000016,472.701,0.0
53009.0,STARLINK-4277,PAYLOAD,2022-09-26 14:00:01,15.30267717,0.0002014,53.2174,341.7463,35.8494,121.1125,-0.039119,-0.01065006,0.0,0 STARLINK-4277,1 53009U 22076Z   22269.58334491 -.01065006  00000-0 -39119-1 0  9996,2 53009  53.2174 341.7463 0002014  35.8494 121.1125 15.30267717  1305,6853.15,94.101,476.395,473.635,0.0
53009.0,STARLINK-4277,PAYLOAD,2022-09-26 22:00:00,15.2950997,0.0001771999999999,53.2174,340.1959,42.4982,151.3454,-0.040166,-0.01067742,0.0,0 STARLINK-4277,1 53009U 22076Z   22269.91667824 -.01067742  00000-0 -40166-1 0  9995,2 53009  53.2174 340.1959 0001772  42.4982 151.3454 15.29509970  1302,6855.413000000001,94.148,478.49300000000005,476.06300000000016,0.0
53009.0,STARLINK-4277,PAYLOAD,2022-09-27 06:00:00,15.2877584,0.0001738,53.2166,338.65,47.0146,182.7832,-0.042433,-0.01099713,0.0,0 STARLINK-4277,1 53009U 22076Z   22270.25001157 -.01099713  00000-0 -42433-1 0  9997,2 53009  53.2166 338.6500 0001738  47.0146 182.7832 15.28775840 13314,6857.608,94.193,480.665,478.281,0.0
53009.0,STARLINK-4277,PAYLOAD,2022-09-27 14:00:01,15.27988734,0.0001758,53.2175,337.1051,42.0172,222.851,-0.041913,-0.01063431,0.0,0 STARLINK-4277,1 53009U 22076Z   22270.58334491 -.01063431  00000-0 -41913-1 0  9993,2 53009  53.2175 337.1051 0001758  42.0172 222.8510 15.27988734  1307,6859.962,94.242,483.033,480.621,0.0
53009.0,STARLINK-4277,PAYLOAD,2022-09-27 22:00:01,15.27232,0.000151,53.2175,335.56,46.8081,252.2673,-0.043133,-0.01068749,0.0,0 STARLINK-4277,1 53009U 22076Z   22270.91668981 -.01068749  00000-0 -43133-1 0  9997,2 53009  53.2175 335.5600 0001510  46.8081 252.2673 15.27232000  1301,6862.228,94.288,485.13,483.057,0.0
53009.0,STARLINK-4277,PAYLOAD,2022-09-28 14:00:01,15.25710678,0.000173,53.2174,332.48,35.7937,328.7667,-0.044981,-0.01064505,0.0,0 STARLINK-4277,1 53009U 22076Z   22271.58334491 -.01064505  00000-0 -44981-1 0  9995,2 53009  53.2174 332.4800 0001730  35.7937 328.7667 15.25710678  1301,6866.7890000000025,94.382,489.842,487.466,0.0
53009.0,STARLINK-4277,PAYLOAD,2022-09-28 22:00:00,15.24951782,0.0001613,53.2174,330.9402,38.765,357.2019,-0.046097,-0.01066,0.0,0 STARLINK-4277,1 53009U 22076Z   22271.91667824 -.01066000  00000-0 -46097-1 0  9993,2 53009  53.2174 330.9402 0001613  38.7650 357.2019 15.24951782  1307,6869.066999999999,94.429,492.04,489.824,0.0
53009.0,STARLINK-4277,PAYLOAD,2022-09-29 14:00:01,15.23435568,0.0001816,53.217,327.8727,39.4825,56.5532,-0.048362,-0.01068405,0.0,0 STARLINK-4277,1 53009U 22076Z   22272.58334491 -.01068405  00000-0 -48362-1 0  9996,2 53009  53.2170 327.8727 0001816  39.4825  56.5532 15.23435568  1302,6873.624,94.523,496.737,494.241,0.0
53009.0,STARLINK-4277,PAYLOAD,2022-09-29 22:00:00,15.2267095,0.0001792,53.2173,326.3369,41.3945,83.3132,-0.049149,-0.01061877,0.0,0 STARLINK-4277,1 53009U 22076Z   22272.91667824 -.01061877  00000-0 -49149-1 0  9992,2 53009  53.2173 326.3369 0001792  41.3945  83.3132 15.22670950  1308,6875.925,94.571,499.022,496.5580000000001,0.0
53009.0,STARLINK-4277,PAYLOAD,2022-09-30 14:00:01,15.21191488,0.0001835,53.2169,323.2797,36.6703,142.611,-0.054005,-0.01126624,0.0,0 STARLINK-4277,1 53009U 22076Z   22273.58334491 -.01126624  00000-0 -54005-1 0  9996,2 53009  53.2169 323.2797 0001835  36.6703 142.6110 15.21191488  1309,6880.3830000000025,94.663,503.51,500.985,0.0
